[{"OBJECT_NAME":"ONEWEB-0056","OBJECT_ID":"2020-008AE","EPOCH":"2026-05-14T05:32:00.650976","MEAN_MOTION":13.10841745,"ECCENTRICITY":0.0001643,"INCLINATION":87.886,"RA_OF_ASC_NODE":43.0183,"ARG_OF_PERICENTER":83.59,"MEAN_ANOMALY":276.5415,"EPHEMERIS_TYPE":0,"CLASSIFICATION_TYPE":"U","NORAD_CAT_ID":45159,"ELEMENT_SET_NO":999,"REV_AT_EPOCH":30373,"BSTAR":-0.0015451000000000002,"MEAN_MOTION_DOT":-5.3e-06,"MEAN_MOTION_DDOT":0.0},{"OBJECT_NAME":"ONEWEB-0057","OBJECT_ID":"2020-008AF","EPOCH":"2026-05-14T05:52:36.095808","MEAN_MOTION":13.10375986,"ECCENTRICITY":0.0002318,"INCLINATION":87.8864,"RA_OF_ASC_NODE":43.0272,"ARG_OF_PERICENTER":86.7908,"MEAN_ANOMALY":273.3485,"EPHEMERIS_TYPE":0,"CLASSIFICATION_TYPE":"U","NORAD_CAT_ID":45160,"ELEMENT_SET_NO":999,"REV_AT_EPOCH":30390,"BSTAR":-0.0010865,"MEAN_MOTION_DOT":-3.67e-06,"MEAN_MOTION_DDOT":0.0},{"OBJECT_NAME":"ONEWEB-0058","OBJECT_ID":"2020-008AG","EPOCH":"2026-05-14T07:23:25.276416","MEAN_MOTION":13.1037194,"ECCENTRICITY":0.000186,"INCLINATION":87.8857,"RA_OF_ASC_NODE":43.0225,"ARG_OF_PERICENTER":71.7274,"MEAN_ANOMALY":288.4056,"EPHEMERIS_TYPE":0,"CLASSIFICATION_TYPE":"U","NORAD_CAT_ID":45161,"ELEMENT_SET_NO":999,"REV_AT_EPOCH":30398,"BSTAR":-0.0017560000000000002,"MEAN_MOTION_DOT":-6e-06,"MEAN_MOTION_DDOT":0.0},{"OBJECT_NAME":"ONEWEB-0059","OBJECT_ID":"2020-008AH","EPOCH":"2026-05-14T07:18:27.167904","MEAN_MOTION":13.10372319,"ECCENTRICITY":0.0002028,"INCLINATION":87.8854,"RA_OF_ASC_NODE":43.022,"ARG_OF_PERICENTER":74.9971,"MEAN_ANOMALY":285.138,"EPHEMERIS_TYPE":0,"CLASSIFICATION_TYPE":"U","NORAD_CAT_ID":45162,"ELEMENT_SET_NO":999,"REV_AT_EPOCH":30388,"BSTAR":-0.0015629,"MEAN_MOTION_DOT":-5.33e-06,"MEAN_MOTION_DDOT":0.0},{"OBJECT_NAME":"ONEWEB-0062","OBJECT_ID":"2020-008AJ","EPOCH":"2026-05-14T06:01:45.550560","MEAN_MOTION":13.10375621,"ECCENTRICITY":0.0001665,"INCLINATION":87.8866,"RA_OF_ASC_NODE":43.0176,"ARG_OF_PERICENTER":65.8976,"MEAN_ANOMALY":294.2325,"EPHEMERIS_TYPE":0,"CLASSIFICATION_TYPE":"U","NORAD_CAT_ID":45163,"ELEMENT_SET_NO":999,"REV_AT_EPOCH":30374,"BSTAR":-0.0002671,"MEAN_MOTION_DOT":-8.1e-07,"MEAN_MOTION_DDOT":0.0},{"OBJECT_NAME":"ONEWEB-0065","OBJECT_ID":"2020-008AK","EPOCH":"2026-05-14T06:49:35.271264","MEAN_MOTION":13.10370237,"ECCENTRICITY":0.0002002,"INCLINATION":87.8855,"RA_OF_ASC_NODE":43.0196,"ARG_OF_PERICENTER":88.5015,"MEAN_ANOMALY":271.6342,"EPHEMERIS_TYPE":0,"CLASSIFICATION_TYPE":"U","NORAD_CAT_ID":45164,"ELEMENT_SET_NO":999,"REV_AT_EPOCH":30344,"BSTAR":0.0012284000000000002,"MEAN_MOTION_DOT":4.41e-06,"MEAN_MOTION_DDOT":0.0},{"OBJECT_NAME":"ONEWEB-0066","OBJECT_ID":"2020-020A","EPOCH":"2026-05-14T06:30:07.177824","MEAN_MOTION":13.11416863,"ECCENTRICITY":0.0001989,"INCLINATION":87.8923,"RA_OF_ASC_NODE":27.8164,"ARG_OF_PERICENTER":76.7811,"MEAN_ANOMALY":283.3539,"EPHEMERIS_TYPE":0,"CLASSIFICATION_TYPE":"U","NORAD_CAT_ID":45424,"ELEMENT_SET_NO":999,"REV_AT_EPOCH":29823,"BSTAR":-0.001548,"MEAN_MOTION_DOT":-5.36e-06,"MEAN_MOTION_DDOT":0.0},{"OBJECT_NAME":"ONEWEB-0067","OBJECT_ID":"2020-020B","EPOCH":"2026-05-14T05:35:03.989184","MEAN_MOTION":13.11421626,"ECCENTRICITY":0.0001952,"INCLINATION":87.8937,"RA_OF_ASC_NODE":27.7405,"ARG_OF_PERICENTER":86.1083,"MEAN_ANOMALY":274.0268,"EPHEMERIS_TYPE":0,"CLASSIFICATION_TYPE":"U","NORAD_CAT_ID":45425,"ELEMENT_SET_NO":999,"REV_AT_EPOCH":29828,"BSTAR":0.0014992,"MEAN_MOTION_DOT":5.44e-06,"MEAN_MOTION_DDOT":0.0},{"OBJECT_NAME":"ONEWEB-0080","OBJECT_ID":"2020-020C","EPOCH":"2026-05-14T05:34:11.597952","MEAN_MOTION":13.11417897,"ECCENTRICITY":0.0001636,"INCLINATION":87.8927,"RA_OF_ASC_NODE":27.818,"ARG_OF_PERICENTER":71.7584,"MEAN_ANOMALY":288.3722,"EPHEMERIS_TYPE":0,"CLASSIFICATION_TYPE":"U","NORAD_CAT_ID":45426,"ELEMENT_SET_NO":999,"REV_AT_EPOCH":29825,"BSTAR":0.0015819,"MEAN_MOTION_DOT":5.73e-06,"MEAN_MOTION_DDOT":0.0},{"OBJECT_NAME":"ONEWEB-0090","OBJECT_ID":"2020-020D","EPOCH":"2026-05-14T06:15:40.166784","MEAN_MOTION":13.11414616,"ECCENTRICITY":0.0001755,"INCLINATION":87.8927,"RA_OF_ASC_NODE":27.8173,"ARG_OF_PERICENTER":78.6504,"MEAN_ANOMALY":281.4821,"EPHEMERIS_TYPE":0,"CLASSIFICATION_TYPE":"U","NORAD_CAT_ID":45427,"ELEMENT_SET_NO":999,"REV_AT_EPOCH":29822,"BSTAR":-0.00096561,"MEAN_MOTION_DOT":-3.3e-06,"MEAN_MOTION_DDOT":0.0},{"OBJECT_NAME":"ONEWEB-0061","OBJECT_ID":"2020-020E","EPOCH":"2026-05-14T05:11:48.036480","MEAN_MOTION":13.11421006,"ECCENTRICITY":0.0001813,"INCLINATION":87.8927,"RA_OF_ASC_NODE":27.8112,"ARG_OF_PERICENTER":78.4604,"MEAN_ANOMALY":281.6728,"EPHEMERIS_TYPE":0,"CLASSIFICATION_TYPE":"U","NORAD_CAT_ID":45428,"ELEMENT_SET_NO":999,"REV_AT_EPOCH":29817,"BSTAR":0.00057481,"MEAN_MOTION_DOT":2.16e-06,"MEAN_MOTION_DDOT":0.0},{"OBJECT_NAME":"ONEWEB-0081","OBJECT_ID":"2020-020F","EPOCH":"2026-05-14T02:55:16.378176","MEAN_MOTION":13.11417973,"ECCENTRICITY":0.0002019,"INCLINATION":87.8921,"RA_OF_ASC_NODE":27.8418,"ARG_OF_PERICENTER":80.4079,"MEAN_ANOMALY":279.7277,"EPHEMERIS_TYPE":0,"CLASSIFICATION_TYPE":"U","NORAD_CAT_ID":45429,"ELEMENT_SET_NO":999,"REV_AT_EPOCH":29827,"BSTAR":-0.0011278,"MEAN_MOTION_DOT":-3.87e-06,"MEAN_MOTION_DDOT":0.0},{"OBJECT_NAME":"ONEWEB-0069","OBJECT_ID":"2020-020G","EPOCH":"2026-05-14T02:50:38.724000","MEAN_MOTION":13.10859325,"ECCENTRICITY":0.0001911,"INCLINATION":87.8921,"RA_OF_ASC_NODE":27.8423,"ARG_OF_PERICENTER":80.5469,"MEAN_ANOMALY":279.5875,"EPHEMERIS_TYPE":0,"CLASSIFICATION_TYPE":"U","NORAD_CAT_ID":45430,"ELEMENT_SET_NO":999,"REV_AT_EPOCH":29820,"BSTAR":-0.0016323,"MEAN_MOTION_DOT":-5.61e-06,"MEAN_MOTION_DDOT":0.0},{"OBJECT_NAME":"ONEWEB-0031","OBJECT_ID":"2020-020H","EPOCH":"2026-05-14T05:38:51.967680","MEAN_MOTION":13.11414912,"ECCENTRICITY":0.0001703,"INCLINATION":87.8914,"RA_OF_ASC_NODE":27.8293,"ARG_OF_PERICENTER":76.2199,"MEAN_ANOMALY":283.9119,"EPHEMERIS_TYPE":0,"CLASSIFICATION_TYPE":"U","NORAD_CAT_ID":45431,"ELEMENT_SET_NO":999,"REV_AT_EPOCH":29820,"BSTAR":0.0014002,"MEAN_MOTION_DOT":5.09e-06,"MEAN_MOTION_DDOT":0.0},{"OBJECT_NAME":"ONEWEB-0027","OBJECT_ID":"2020-020J","EPOCH":"2026-05-14T03:13:48.386784","MEAN_MOTION":13.17650887,"ECCENTRICITY":0.0001429,"INCLINATION":87.9174,"RA_OF_ASC_NODE":12.6177,"ARG_OF_PERICENTER":84.6828,"MEAN_ANOMALY":275.4466,"EPHEMERIS_TYPE":0,"CLASSIFICATION_TYPE":"U","NORAD_CAT_ID":45432,"ELEMENT_SET_NO":999,"REV_AT_EPOCH":30187,"BSTAR":0.000134,"MEAN_MOTION_DOT":6.5e-07,"MEAN_MOTION_DDOT":0.0},{"OBJECT_NAME":"ONEWEB-0064","OBJECT_ID":"2020-020K","EPOCH":"2026-05-14T05:36:25.975008","MEAN_MOTION":13.11415634,"ECCENTRICITY":0.0001634,"INCLINATION":87.8914,"RA_OF_ASC_NODE":27.8201,"ARG_OF_PERICENTER":79.2974,"MEAN_ANOMALY":280.8338,"EPHEMERIS_TYPE":0,"CLASSIFICATION_TYPE":"U","NORAD_CAT_ID":45433,"ELEMENT_SET_NO":999,"REV_AT_EPOCH":29823,"BSTAR":0.001685,"MEAN_MOTION_DOT":6.1e-06,"MEAN_MOTION_DDOT":0.0}]