ONEWEB-0056             
1 45159U 20008AE  26134.23056309 -.00000530  00000+0 -15451-2 0  9995
2 45159  87.8860  43.0183 0001643  83.5900 276.5415 13.10841745303731
ONEWEB-0057             
1 45160U 20008AF  26134.24486222 -.00000367  00000+0 -10865-2 0  9991
2 45160  87.8864  43.0272 0002318  86.7908 273.3485 13.10375986303909
ONEWEB-0058             
1 45161U 20008AG  26134.30793144 -.00000600  00000+0 -17560-2 0  9992
2 45161  87.8857  43.0225 0001860  71.7274 288.4056 13.10371940303986
ONEWEB-0059             
1 45162U 20008AH  26134.30448111 -.00000533  00000+0 -15629-2 0  9993
2 45162  87.8854  43.0220 0002028  74.9971 285.1380 13.10372319303889
ONEWEB-0062             
1 45163U 20008AJ  26134.25122165 -.00000081  00000+0 -26710-3 0  9998
2 45163  87.8866  43.0176 0001665  65.8976 294.2325 13.10375621303747
ONEWEB-0065             
1 45164U 20008AK  26134.28443601  .00000441  00000+0  12284-2 0  9991
2 45164  87.8855  43.0196 0002002  88.5015 271.6342 13.10370237303443
ONEWEB-0066             
1 45424U 20020A   26134.27091641 -.00000536  00000+0 -15480-2 0  9994
2 45424  87.8923  27.8164 0001989  76.7811 283.3539 13.11416863298234
ONEWEB-0067             
1 45425U 20020B   26134.23268506  .00000544  00000+0  14992-2 0  9991
2 45425  87.8937  27.7405 0001952  86.1083 274.0268 13.11421626298287
ONEWEB-0080             
1 45426U 20020C   26134.23207868  .00000573  00000+0  15819-2 0  9997
2 45426  87.8927  27.8180 0001636  71.7584 288.3722 13.11417897298258
ONEWEB-0090             
1 45427U 20020D   26134.26088156 -.00000330  00000+0 -96561-3 0  9995
2 45427  87.8927  27.8173 0001755  78.6504 281.4821 13.11414616298228
ONEWEB-0061             
1 45428U 20020E   26134.21652820  .00000216  00000+0  57481-3 0  9995
2 45428  87.8927  27.8112 0001813  78.4604 281.6728 13.11421006298179
ONEWEB-0081             
1 45429U 20020F   26134.12171734 -.00000387  00000+0 -11278-2 0  9990
2 45429  87.8921  27.8418 0002019  80.4079 279.7277 13.11417973298277
ONEWEB-0069             
1 45430U 20020G   26134.11850375 -.00000561  00000+0 -16323-2 0  9996
2 45430  87.8921  27.8423 0001911  80.5469 279.5875 13.10859325298204
ONEWEB-0031             
1 45431U 20020H   26134.23532370  .00000509  00000+0  14002-2 0  9994
2 45431  87.8914  27.8293 0001703  76.2199 283.9119 13.11414912298203
ONEWEB-0027             
1 45432U 20020J   26134.13458781  .00000065  00000+0  13400-3 0  9996
2 45432  87.9174  12.6177 0001429  84.6828 275.4466 13.17650887301871
ONEWEB-0064             
1 45433U 20020K   26134.23363397  .00000610  00000+0  16850-2 0  9993
2 45433  87.8914  27.8201 0001634  79.2974 280.8338 13.11415634298235
